    PK20V040  2021 07 17.7931  5.148540  0.449406  256.9922  203.4967   14.2429  20220128   9.0  4.0  P/2020 V4 (Rankin)                                       MPEC 2022-A21
    PK20W010  2020 04  5.8896  5.288862  0.265874  264.9095  124.2638   10.7911  20220128  10.0  4.0  P/2020 W1 (Rankin)                                       MPEC 2021-BE3
    CK20W050  2020 11 30.0817  3.364326  1.000765   24.4812   75.5003   88.5833  20220128  15.0  4.0  C/2020 W5 (Lemmon)                                       MPEC 2021-BE3
    PK20X010  2020 07 20.4735  2.872600  0.365508  323.2972   56.0175   31.6947  20220128  13.0  4.0  P/2020 X1 (ATLAS)                                        MPEC 2021-P47
    CK20X020  2020 11 15.8194  3.828016  0.766766  347.3409  105.4523   18.1885  20220128  10.6  4.0  C/2020 X2 (ATLAS)                                        MPEC 2021-U31
    CK20X040  2020 11 17.0609  5.216548  0.877686  140.2788  161.8897   80.6352  20220128   9.0  4.0  C/2020 X4 (Leonard)                                      MPEC 2021-S45
    CK20Y020  2022 06 17.6743  3.132482  0.997285  266.0999   26.5115  101.2964  20220128   6.5  4.0  C/2020 Y2 (ATLAS)                                        MPEC 2021-Y10
    CK20Y030  2020 12  3.4408  1.998808  0.986503  342.0229  191.4342   83.1011  20220128  13.5  4.0  C/2020 Y3 (ATLAS)                                        MPEC 2021-R75
    CK21A010  2022 01  3.3001  0.615254  1.000024  225.0934  255.8968  132.6865  20220128   8.5  4.0  C/2021 A1 (Leonard)                                      MPEC 2022-A21
    CK21A020  2021 01 22.6010  1.412667  0.994301  338.8278  125.2331  106.9775  20220128  13.5  4.0  C/2021 A2 (NEOWISE)                                      MPEC 2021-U31
    CK21A040  2021 03 20.0177  1.146191  0.973365  204.6916  307.0946  111.5608  20220128  16.0  4.0  C/2021 A4 (NEOWISE)                                      MPEC 2021-R75
    PK21A050  2020 11 11.9045  2.621042  0.139802   61.1948  328.7680   18.1877  20220128  15.0  4.0  P/2021 A5 (PANSTARRS)                                    MPEC 2021-BE3
    CK21A060  2021 05  4.2123  7.928590  0.999258  351.6975  164.0792   75.6117  20220128   7.0  4.0  C/2021 A6 (PANSTARRS)                                    MPEC 2022-A21
    CK21A070  2021 07 15.3006  1.967607  0.999617  356.0515  154.5182   78.1496  20220128  10.0  4.0  C/2021 A7 (NEOWISE)                                      MPEC 2022-A21
    CK21A090  2023 12  1.4179  7.759060  1.003957  211.4657  314.8417  158.0271  20220128   6.0  4.0  C/2021 A9 (PANSTARRS)                                    MPEC 2021-P47
    CK21A100  2021 03 15.3239  1.270142  0.986890   82.3575  188.3651  151.5610  20220128  19.0  4.0  C/2021 A10 (NEOWISE)                                     MPEC 2021-N06
    CK21B020  2021 05  4.2618  2.512952  0.992823  334.9653  120.5533   38.0913  20220128  14.0  4.0  C/2021 B2 (PANSTARRS)                                    MPEC 2021-O56
    CK21B030  2021 03 10.8823  2.160177  0.938032  293.5548   67.2866  119.4831  20220128  13.5  4.0  C/2021 B3 (NEOWISE)                                      MPEC 2021-N06
    CK21C010  2020 12  7.1004  3.480816  0.999913  336.2991  186.8954  143.0435  20220128  11.5  4.0  C/2021 C1 (Rankin)                                       MPEC 2022-A21
    PK21C020  2021 02 24.1246  4.889781  0.487275   78.7817   66.4810   21.9280  20220128  12.0  4.0  P/2021 C2 (PANSTARRS)                                    MPEC 2021-U31
    CK21C030  2021 02 12.3995  2.276068  0.963909  357.1346  181.9246  122.1644  20220128  14.0  4.0  C/2021 C3 (Catalina)                                     MPEC 2021-N06
    CK21C040  2021 01 17.0948  4.504062  0.999693  320.2313  194.2755  132.8484  20220128   9.0  4.0  C/2021 C4 (ATLAS)                                        MPEC 2022-A21
    CK21C050  2023 02 11.0486  3.241853  0.999252  270.9173  323.6902   50.7851  20220128   9.0  4.0  C/2021 C5 (PANSTARRS)                                    MPEC 2022-A21
    CK21C060  2021 11 13.3149  3.271213  1.001674  203.5600  332.1556  164.6257  20220128  12.0  4.0  C/2021 C6 (Lemmon)                                       MPEC 2022-A21
    CK21D010  2021 02 27.6317  0.901848  0.990789   72.2334  311.2695   31.4569  20220128  13.0  4.0  C/2021 D1 (SWAN)                                         MPEC 2021-N06
    CK21D020  2022 02  3.9831  2.946289  1.001421  125.0303  305.6786   83.8306  20220128   9.0  4.0  C/2021 D2 (ZTF)                                          MPEC 2022-A21
    AK21E020  2020 12 10.4660  2.287730  0.990272  342.4534  190.8172  167.4882  20220128  15.0  2.0  A/2021 E2                                                MPEC 2021-N06
    CK21E030  2022 06 11.9061  1.777435  1.000851  228.8450  104.4682  112.5568  20220128   8.5  4.0  C/2021 E3 (ZTF)                                          MPEC 2022-A21
    AK21E040  2022 04 25.3342  4.676033  0.993323   48.2787  171.1734  116.3609  20220128  13.5  2.0  A/2021 E4                                                MPEC 2021-P47
    AK21F010  2022 04  6.8741  0.995490  0.995781  146.8225  203.4513  107.3242  20220128  17.5  2.0  A/2021 F1                                                MPEC 2022-A21
    CK21G010  2021 07 22.1885  3.423583  0.954421  107.4769  270.6971  131.5633  20220128  14.0  4.0  C/2021 G1 (Leonard)                                      MPEC 2021-J72
    CK21G020  2024 09 10.0363  4.978157  0.998722  343.3721  221.1223   48.4731  20220128   5.5  4.0  C/2021 G2 (ATLAS)                                        MPEC 2022-A21
    CK21G030  2021 10 18.5591  5.181100  1.001006   10.6425  147.4183  102.8816  20220128  10.5  4.0  C/2021 G3 (PANSTARRS)                                    MPEC 2021-M86
    PK21H00S  2021 08  6.3815  0.796467  0.810111   46.0854  262.3906   12.1710  20220128  22.0  4.0  P/2021 HS (PANSTARRS)                                    MPEC 2021-Y10
    CK21J010  2021 02 19.4226  1.740382  0.933601  147.3032   88.3175   92.7093  20220128  15.5  4.0  C/2021 J1 (Maury-Attard)                                 MPEC 2021-R75
    CK21J020  2021 09 22.4399  4.706674  0.960020  172.0547   23.3290  156.2091  20220128  12.0  4.0  C/2021 J2 (PANSTARRS)                                    MPEC 2021-R75
    PK21J030  2019 07  5.0953  4.915218  0.450316  125.9584  111.2085   14.5506  20220128   7.0  4.0  P/2021 J3 (ATLAS)                                        MPEC 2021-S45
    CK21K010  2021 05  4.4859  2.497639  0.803464  184.2833  140.9045   16.2759  20220128  11.0  4.0  C/2021 K1 (ATLAS)                                        MPEC 2022-A21
    CK21K020  2021 09  9.2652  5.466734  1.000596  343.3353  282.2482  100.8378  20220128   8.0  4.0  C/2021 K2 (MASTER)                                       MPEC 2021-R75
    CK21K030  2022 02  2.6773  5.229845  1.003316  181.9942  114.4509  134.7770  20220128  10.0  4.0  C/2021 K3 (Catalina)                                     MPEC 2021-U31
    PK21L020  2021 07 24.4767  1.938398  0.521538   51.5248  266.6606   21.0687  20220128  17.0  4.0  P/2021 L2 (Leonard)                                      MPEC 2021-W31
    CK21L030  2022 02 14.0083  8.457342  1.001218   91.6145  344.9683   78.5798  20220128   6.0  4.0  C/2021 L3 (Borisov)                                      MPEC 2021-WD8
    PK21L040  2019 09  3.8337  2.789643  0.118577  234.5863  243.2247   16.9616  20220128  13.5  4.0  P/2021 L4 (PANSTARRS)                                    MPEC 2021-R75
    PK21N010  2021 06  6.5470  0.962359  0.676746   21.1957  301.1655   11.5055  20220128  19.0  4.0  P/2021 N1 (ZTF)                                          MPEC 2021-P47
    PK21N020  2021 11 13.2794  3.796609  0.452374  177.3418  221.7424   13.0629  20220128   9.5  4.0  P/2021 N2 (Fuls)                                         MPEC 2022-A21
    CK21N030  2020 08 19.1594  5.708294  0.964588  304.6340  337.4943   26.7502  20220128   8.5  4.0  C/2021 N3 (PANSTARRS)                                    MPEC 2021-W31
    CK21O010  2021 08 13.9314  0.786849  0.999732   74.4543   41.6063   27.5754  20220128  10.5  4.0  C/2021 O1 (Nishimura)                                    MPEC 2022-A21
    CK21O030  2022 04 21.0475  0.287322  1.000114  299.9905  189.0196   56.7901  20220128  10.5  4.0  C/2021 O3 (PANSTARRS)                                    MPEC 2022-A21
    CK21P010  2022 06  1.9626  4.374352  0.999205   40.3975  359.6743   51.6317  20220128  11.0  4.0  C/2021 P1 (PANSTARRS)                                    MPEC 2021-W31
    CK21P020  2023 01 21.8211  5.071132  0.998620   76.5147   32.0061  150.0289  20220128   9.0  4.0  C/2021 P2 (PANSTARRS)                                    MPEC 2021-W31
    PK21P030  2021 05 30.7218  2.915932  0.339847  334.1693  358.2391   27.1611  20220128  14.0  4.0  P/2021 P3 (PANSTARRS)                                    MPEC 2021-W31
    CK21P040  2022 07 30.3811  1.080459  0.996554  175.8226  348.0963   56.3116  20220128   9.5  4.0  C/2021 P4 (ATLAS)                                        MPEC 2022-A21
    CK21Q030  2022 01 26.0313  5.204769  0.930364  114.0846  307.9030   77.7769  20220128   8.0  4.0  C/2021 Q3 (ATLAS)                                        MPEC 2021-Y10
    CK21Q040  2023 06  9.2179  7.566615  1.003326  146.9127  183.3326   71.4736  20220128   6.0  4.0  C/2021 Q4 (Fuls)                                         MPEC 2021-UA9
    PK21Q050  2021 08 30.4350  1.234544  0.624289  180.8975  239.7727   10.7341  20220128  15.0  4.0  P/2021 Q5 (ATLAS)                                        MPEC 2021-WD8
    CK21Q060  2024 03 21.7504  8.714048  0.998976  140.8270  133.5389  161.8470  20220128   6.0  4.0  C/2021 Q6 (PANSTARRS)                                    MPEC 2021-Y10
    PK21R010  2021 12 17.6509  4.885781  0.419242  220.3227  143.4076    5.5212  20220128  11.0  4.0  P/2021 R1 (PANSTARRS)                                    MPEC 2021-W31
